start=new Date('2022-12-23T00:00:00.000Z').valueOf();
sats=[{"ELEMENT_SET_NO":"999","REF_FRAME":"TEME","OBJECT_ID":"2022-141AC","BSTAR":"-0.03288000000000","EPOCH":"2022-12-22T22:00:00.999936","MEAN_ANOMALY":"2.6950","CLASSIFICATION_TYPE":"U","TIME_SYSTEM":"UTC","OBJECT_NAME":"STARLINK-5239","PERIOD":"93.639","TLE_LINE2":"2 54183  53.2140 229.8059 0001209  74.2973   2.6950 15.37825332  1302","OBJECT_TYPE":"PAYLOAD","SITE":"AFWTR","FILE":"3719655","SEMIMAJOR_AXIS":"6830.678","MEAN_MOTION_DOT":"-0.01132958","NORAD_CAT_ID":"54183","LAUNCH_DATE":"2022-10-28","REV_AT_EPOCH":"130","APOAPSIS":"453.369","ARG_OF_PERICENTER":"74.2973","ECCENTRICITY":"0.00012090","COUNTRY_CODE":"US","MEAN_MOTION_DDOT":"0.0000000000000","GP_ID":"221239306","MEAN_ELEMENT_THEORY":"SGP4","DECAY_DATE":null,"MEAN_MOTION":"15.37825332","INCLINATION":"53.2140","TLE_LINE1":"1 54183U 22141AC  22356.91667824 -.01132958  00000-0 -32880-1 0  9995","PERIAPSIS":"451.718","CENTER_NAME":"EARTH","RCS_SIZE":"LARGE","RA_OF_ASC_NODE":"229.8059","EPHEMERIS_TYPE":"0"},{"ECCENTRICITY":"0.00012460","COUNTRY_CODE":"US","ARG_OF_PERICENTER":"73.5388","APOAPSIS":"451.527","NORAD_CAT_ID":"54184","MEAN_MOTION_DOT":"-0.01141757","FILE":"3719655","SEMIMAJOR_AXIS":"6828.811","REV_AT_EPOCH":"130","LAUNCH_DATE":"2022-10-28","EPHEMERIS_TYPE":"0","RCS_SIZE":"LARGE","CENTER_NAME":"EARTH","PERIAPSIS":"449.825","RA_OF_ASC_NODE":"229.7729","INCLINATION":"53.2176","GP_ID":"221239513","DECAY_DATE":null,"MEAN_MOTION":"15.38456118","MEAN_ELEMENT_THEORY":"SGP4","TLE_LINE1":"1 54184U 22141AD  22356.91667824 -.01141757  00000-0 -32480-1 0  9999","MEAN_MOTION_DDOT":"0.0000000000000","MEAN_ANOMALY":"16.6978","OBJECT_NAME":"STARLINK-5162","CLASSIFICATION_TYPE":"U","TIME_SYSTEM":"UTC","EPOCH":"2022-12-22T22:00:00.999936","BSTAR":"-0.03248000000000","ELEMENT_SET_NO":"999","REF_FRAME":"TEME","OBJECT_ID":"2022-141AD","SITE":"AFWTR","OBJECT_TYPE":"PAYLOAD","PERIOD":"93.600","TLE_LINE2":"2 54184  53.2176 229.7729 0001246  73.5388  16.6978 15.38456118  1306"},{"MEAN_ANOMALY":"352.6814","TIME_SYSTEM":"UTC","CLASSIFICATION_TYPE":"U","OBJECT_NAME":"STARLINK-5235","EPOCH":"2022-12-22T22:00:00.999936","BSTAR":"-0.03348000000000","ELEMENT_SET_NO":"999","REF_FRAME":"TEME","OBJECT_ID":"2022-141AE","SITE":"AFWTR","OBJECT_TYPE":"PAYLOAD","PERIOD":"93.657","TLE_LINE2":"2 54185  53.2176 229.8130 0001194  77.4154 352.6814 15.37528207  1300","ECCENTRICITY":"0.00011940","COUNTRY_CODE":"US","APOAPSIS":"454.239","ARG_OF_PERICENTER":"77.4154","FILE":"3719655","SEMIMAJOR_AXIS":"6831.558","MEAN_MOTION_DOT":"-0.01141655","NORAD_CAT_ID":"54185","LAUNCH_DATE":"2022-10-28","REV_AT_EPOCH":"130","EPHEMERIS_TYPE":"0","PERIAPSIS":"452.608","CENTER_NAME":"EARTH","RCS_SIZE":"LARGE","RA_OF_ASC_NODE":"229.8130","MEAN_MOTION":"15.37528207","GP_ID":"221238477","DECAY_DATE":null,"MEAN_ELEMENT_THEORY":"SGP4","INCLINATION":"53.2176","TLE_LINE1":"1 54185U 22141AE  22356.91667824 -.01141655  00000-0 -33480-1 0  9998","MEAN_MOTION_DDOT":"0.0000000000000"},{"COUNTRY_CODE":"US","ECCENTRICITY":"0.00029440","ARG_OF_PERICENTER":"16.9370","APOAPSIS":"351.748","REV_AT_EPOCH":"882","LAUNCH_DATE":"2022-10-28","MEAN_MOTION_DOT":"0.00012156","NORAD_CAT_ID":"54186","FILE":"3719655","SEMIMAJOR_AXIS":"6727.903","EPHEMERIS_TYPE":"0","RA_OF_ASC_NODE":"227.5551","RCS_SIZE":"LARGE","PERIAPSIS":"347.787","CENTER_NAME":"EARTH","TLE_LINE1":"1 54186U 22141AF  22356.88157714  .00012156  00000-0  90914-4 0  9995","INCLINATION":"53.2134","GP_ID":"221238684","DECAY_DATE":null,"MEAN_ELEMENT_THEORY":"SGP4","MEAN_MOTION":"15.73197394","MEAN_MOTION_DDOT":"0.0000000000000","CLASSIFICATION_TYPE":"U","OBJECT_NAME":"STARLINK-5194","TIME_SYSTEM":"UTC","MEAN_ANOMALY":"343.1747","EPOCH":"2022-12-22T21:09:28.264896","BSTAR":"0.00009091400000","OBJECT_ID":"2022-141AF","ELEMENT_SET_NO":"999","REF_FRAME":"TEME","SITE":"AFWTR","OBJECT_TYPE":"PAYLOAD","TLE_LINE2":"2 54186  53.2134 227.5551 0002944  16.9370 343.1747 15.73197394  8822","PERIOD":"91.533"},{"TLE_LINE2":"2 54187  53.2174 230.1790 0001577 123.3861 122.0785 15.29848946  1300","PERIOD":"94.127","OBJECT_TYPE":"PAYLOAD","SITE":"AFWTR","OBJECT_ID":"2022-141AG","ELEMENT_SET_NO":"999","REF_FRAME":"TEME","BSTAR":"-0.04250000000000","EPOCH":"2022-12-22T22:00:00.999936","TIME_SYSTEM":"UTC","CLASSIFICATION_TYPE":"U","OBJECT_NAME":"STARLINK-5240","MEAN_ANOMALY":"122.0785","MEAN_MOTION_DDOT":"0.0000000000000","TLE_LINE1":"1 54187U 22141AG  22356.91667824 -.01135282  00000-0 -42500-1 0  9992","INCLINATION":"53.2174","GP_ID":"221238892","DECAY_DATE":null,"MEAN_ELEMENT_THEORY":"SGP4","MEAN_MOTION":"15.29848946","RA_OF_ASC_NODE":"230.1790","RCS_SIZE":"LARGE","CENTER_NAME":"EARTH","PERIAPSIS":"475.185","EPHEMERIS_TYPE":"0","REV_AT_EPOCH":"130","LAUNCH_DATE":"2022-10-28","NORAD_CAT_ID":"54187","MEAN_MOTION_DOT":"-0.01135282","FILE":"3719655","SEMIMAJOR_AXIS":"6854.400","ARG_OF_PERICENTER":"123.3861","APOAPSIS":"477.346","COUNTRY_CODE":"US","ECCENTRICITY":"0.00015770"},{"PERIOD":"91.533","TLE_LINE2":"2 54188  53.2122 227.5521 0003054   8.3681 351.7390 15.73197032  8829","SITE":"AFWTR","OBJECT_TYPE":"PAYLOAD","BSTAR":"0.00008023900000","ELEMENT_SET_NO":"999","REF_FRAME":"TEME","OBJECT_ID":"2022-141AH","MEAN_ANOMALY":"351.7390","CLASSIFICATION_TYPE":"U","TIME_SYSTEM":"UTC","OBJECT_NAME":"STARLINK-5238","EPOCH":"2022-12-22T21:09:37.082016","INCLINATION":"53.2122","DECAY_DATE":null,"GP_ID":"221239100","MEAN_ELEMENT_THEORY":"SGP4","MEAN_MOTION":"15.73197032","TLE_LINE1":"1 54188U 22141AH  22356.88167919  .00010653  00000-0  80239-4 0  9994","MEAN_MOTION_DDOT":"0.0000000000000","EPHEMERIS_TYPE":"0","RCS_SIZE":"LARGE","CENTER_NAME":"EARTH","PERIAPSIS":"347.714","RA_OF_ASC_NODE":"227.5521","MEAN_MOTION_DOT":"0.00010653","NORAD_CAT_ID":"54188","SEMIMAJOR_AXIS":"6727.904","FILE":"3719655","REV_AT_EPOCH":"882","LAUNCH_DATE":"2022-10-28","ECCENTRICITY":"0.00030540","COUNTRY_CODE":"US","ARG_OF_PERICENTER":"8.3681","APOAPSIS":"351.823"},{"EPHEMERIS_TYPE":"0","RA_OF_ASC_NODE":"229.2813","RCS_SIZE":"LARGE","PERIAPSIS":"447.797","CENTER_NAME":"EARTH","TLE_LINE1":"1 54189U 22141AJ  22356.91667824 -.01095050  00000-0 -30340-1 0  9991","INCLINATION":"53.2162","DECAY_DATE":null,"GP_ID":"221238064","MEAN_ELEMENT_THEORY":"SGP4","MEAN_MOTION":"15.39141298","MEAN_MOTION_DDOT":"0.0000000000000","COUNTRY_CODE":"US","ECCENTRICITY":"0.00012490","ARG_OF_PERICENTER":"92.4306","APOAPSIS":"449.502","REV_AT_EPOCH":"130","LAUNCH_DATE":"2022-10-28","NORAD_CAT_ID":"54189","MEAN_MOTION_DOT":"-0.01095050","FILE":"3719655","SEMIMAJOR_AXIS":"6826.784","SITE":"AFWTR","OBJECT_TYPE":"PAYLOAD","TLE_LINE2":"2 54189  53.2162 229.2813 0001249  92.4306 245.1062 15.39141298  1302","PERIOD":"93.559","CLASSIFICATION_TYPE":"U","OBJECT_NAME":"STARLINK-5182","TIME_SYSTEM":"UTC","MEAN_ANOMALY":"245.1062","EPOCH":"2022-12-22T22:00:00.999936","BSTAR":"-0.03034000000000","OBJECT_ID":"2022-141AJ","ELEMENT_SET_NO":"999","REF_FRAME":"TEME"},{"LAUNCH_DATE":"2022-10-28","REV_AT_EPOCH":"882","SEMIMAJOR_AXIS":"6727.880","FILE":"3719655","MEAN_MOTION_DOT":"0.00014835","NORAD_CAT_ID":"54190","COUNTRY_CODE":"US","ECCENTRICITY":"0.00032100","APOAPSIS":"351.905","ARG_OF_PERICENTER":"6.4746","TLE_LINE1":"1 54190U 22141AK  22356.88147249  .00014835  00000-0  10990-3 0  9993","DECAY_DATE":null,"GP_ID":"221238271","MEAN_ELEMENT_THEORY":"SGP4","MEAN_MOTION":"15.73205196","INCLINATION":"53.2118","MEAN_MOTION_DDOT":"0.0000000000000","EPHEMERIS_TYPE":"0","RA_OF_ASC_NODE":"227.5573","PERIAPSIS":"347.586","CENTER_NAME":"EARTH","RCS_SIZE":"LARGE","BSTAR":"0.00010990000000","OBJECT_ID":"2022-141AK","REF_FRAME":"TEME","ELEMENT_SET_NO":"999","TIME_SYSTEM":"UTC","CLASSIFICATION_TYPE":"U","OBJECT_NAME":"STARLINK-5281","MEAN_ANOMALY":"353.6315","EPOCH":"2022-12-22T21:09:19.223136","TLE_LINE2":"2 54190  53.2118 227.5573 0003210   6.4746 353.6315 15.73205196  8828","PERIOD":"91.533","SITE":"AFWTR","OBJECT_TYPE":"PAYLOAD"},{"EPHEMERIS_TYPE":"0","CENTER_NAME":"EARTH","PERIAPSIS":"347.617","RCS_SIZE":"LARGE","RA_OF_ASC_NODE":"227.5596","MEAN_MOTION":"15.73205114","GP_ID":"221239307","DECAY_DATE":null,"MEAN_ELEMENT_THEORY":"SGP4","INCLINATION":"53.2134","TLE_LINE1":"1 54191U 22141AL  22356.88189412  .00014339  00000-0  10638-3 0  9990","MEAN_MOTION_DDOT":"0.0000000000000","ECCENTRICITY":"0.00031640","COUNTRY_CODE":"US","APOAPSIS":"351.874","ARG_OF_PERICENTER":"11.8948","SEMIMAJOR_AXIS":"6727.881","FILE":"3719655","NORAD_CAT_ID":"54191","MEAN_MOTION_DOT":"0.00014339","LAUNCH_DATE":"2022-10-28","REV_AT_EPOCH":"882","SITE":"AFWTR","OBJECT_TYPE":"PAYLOAD","PERIOD":"91.533","TLE_LINE2":"2 54191  53.2134 227.5596 0003164  11.8948 348.2147 15.73205114  8827","MEAN_ANOMALY":"348.2147","TIME_SYSTEM":"UTC","CLASSIFICATION_TYPE":"U","OBJECT_NAME":"STARLINK-4619","EPOCH":"2022-12-22T21:09:55.651968","BSTAR":"0.00010638000000","ELEMENT_SET_NO":"999","REF_FRAME":"TEME","OBJECT_ID":"2022-141AL"},{"PERIOD":"91.533","TLE_LINE2":"2 54192  53.2146 227.5534 0002642  12.5600 347.5485 15.73205426  8829","OBJECT_TYPE":"PAYLOAD","SITE":"AFWTR","ELEMENT_SET_NO":"999","REF_FRAME":"TEME","OBJECT_ID":"2022-141AM","BSTAR":"0.00002973000000","EPOCH":"2022-12-22T21:07:55.351200","MEAN_ANOMALY":"347.5485","TIME_SYSTEM":"UTC","CLASSIFICATION_TYPE":"U","OBJECT_NAME":"STARLINK-5268","MEAN_MOTION_DDOT":"0.0000000000000","INCLINATION":"53.2146","MEAN_MOTION":"15.73205426","GP_ID":"221239514","DECAY_DATE":null,"MEAN_ELEMENT_THEORY":"SGP4","TLE_LINE1":"1 54192U 22141AM  22356.88050175  .00003553  00000-0  29730-4 0  9994","RCS_SIZE":"LARGE","PERIAPSIS":"347.967","CENTER_NAME":"EARTH","RA_OF_ASC_NODE":"227.5534","EPHEMERIS_TYPE":"0","NORAD_CAT_ID":"54192","MEAN_MOTION_DOT":"0.00003553","SEMIMAJOR_AXIS":"6727.880","FILE":"3719655","REV_AT_EPOCH":"882","LAUNCH_DATE":"2022-10-28","ARG_OF_PERICENTER":"12.5600","APOAPSIS":"351.522","ECCENTRICITY":"0.00026420","COUNTRY_CODE":"US"}];
